[{"OBJECT_NAME":"STARLINK-36175","OBJECT_ID":"2025-293K","EPOCH":"2026-03-09T11:46:20.204832","MEAN_MOTION":14.98333042,"ECCENTRICITY":0.00028798,"INCLINATION":70.0001,"RA_OF_ASC_NODE":95.1336,"ARG_OF_PERICENTER":267.68,"MEAN_ANOMALY":92.403,"EPHEMERIS_TYPE":0,"CLASSIFICATION_TYPE":"U","NORAD_CAT_ID":67012,"ELEMENT_SET_NO":999,"REV_AT_EPOCH":1485,"BSTAR":0.0002615372,"MEAN_MOTION_DOT":3.029e-5,"MEAN_MOTION_DDOT":0},{"OBJECT_NAME":"CZ-2C R\/B","OBJECT_ID":"2004-029B","EPOCH":"2026-03-08T14:10:50.675520","MEAN_MOTION":2.33669986,"ECCENTRICITY":0.71103463,"INCLINATION":87.7623,"RA_OF_ASC_NODE":238.4162,"ARG_OF_PERICENTER":230.2637,"MEAN_ANOMALY":42.1699,"EPHEMERIS_TYPE":0,"CLASSIFICATION_TYPE":"U","NORAD_CAT_ID":28448,"ELEMENT_SET_NO":999,"REV_AT_EPOCH":16922,"BSTAR":-0.00013997508,"MEAN_MOTION_DOT":2.29e-6,"MEAN_MOTION_DDOT":0}]
